OBJECT_NAME,OBJECT_ID,EPOCH,MEAN_MOTION,ECCENTRICITY,INCLINATION,RA_OF_ASC_NODE,ARG_OF_PERICENTER,MEAN_ANOMALY,EPHEMERIS_TYPE,CLASSIFICATION_TYPE,NORAD_CAT_ID,ELEMENT_SET_NO,REV_AT_EPOCH,BSTAR,MEAN_MOTION_DOT,MEAN_MOTION_DDOT
KUZGTU 1 (RS47S),2023-091AV,2026-06-19T20:19:05.160864,15.29910331,.0012254,97.5058,235.3537,89.8304,270.4341,0,U,57217,999,16478,.32728E-3,.9423E-4,0
SONATE-2,2024-043Q,2026-06-19T09:14:35.778048,15.58855561,.00071433,97.5537,320.9158,188.0523,172.0619,0,U,59112,999,12823,.45828294E-3,.35474E-3,0
MESAT1,2024-125G,2026-06-19T02:10:27.291360,15.63376817,.00097514,97.2284,27.6161,196.5946,163.4996,0,U,60209,999,10986,.52285319E-3,.48291E-3,0
OOV-CUBE (TUBSAT-30),2024-128F,2026-06-19T14:00:53.114976,15.02780984,.00443389,61.9930,217.2156,134.2886,226.1856,0,U,60240,999,10647,.11022768E-3,.1296E-4,0
COLIBRI-S (RS67S),2024-199M,2026-06-19T20:12:14.892192,15.47815455,.0006285,97.2986,44.7197,265.5593,94.4939,0,U,61746,999,13782,.35147E-3,.18189E-3,0
HORS 3 (RS81S),2024-199U,2026-06-19T19:00:42.503040,15.55126158,.0003815,97.2969,46.6846,262.1020,97.9801,0,U,61753,999,13796,.45683E-3,.30747E-3,0
HORS 4 (RS82S),2024-199V,2026-06-19T19:24:58.273056,15.59888479,.0003342,97.2914,47.9201,241.8348,118.2571,0,U,61754,999,13805,.52779E-3,.42501E-3,0
SIT-2086,2024-199AF,2026-06-19T20:06:42.595200,15.53242229,.0004874,97.2927,47.1984,236.9215,123.1571,0,U,61764,999,13484,.50115E-3,.31515E-3,0
HYPERVIEW 1G (RS66S),2024-199AP,2026-06-19T17:30:00.218016,15.76459253,.0004436,97.2863,50.5774,209.3810,150.7207,0,U,61772,999,13507,.80552E-3,.128823E-2,0
ALTAIR (RS65S),2024-199AW,2026-06-19T20:18:40.735584,15.37056299,.0010929,97.3023,40.1793,300.3414,59.6749,0,U,61779,999,13752,.19429E-3,.6976E-4,0
ASRTU-1 (AO-123),2024-199AY,2026-06-19T20:04:36.808896,15.35707553,.001212,97.2994,39.4830,303.3998,56.6086,0,U,61781,999,13433,.18314E-3,.6293E-4,0
SAMSAT-IONOSPHERE (RS75S),2024-199BB,2026-06-19T19:43:14.835936,15.57820507,.0005955,97.2936,46.7710,262.7890,97.2689,0,U,61784,999,13797,.52459E-3,.39082E-3,0
RTU MIREA 1 (RS51S),2024-199BC,2026-06-19T20:09:56.153664,15.61334966,.0005724,97.2925,47.6353,253.4158,106.6472,0,U,61785,999,13488,.5838E-3,.49763E-3,0
TEVEL2-4,2025-052D,2026-06-19T15:50:19.051008,15.34683062,.0004935,97.3895,67.0555,98.3582,261.8220,0,U,63213,999,7049,.47105E-3,.15774E-3,0
TEVEL2-5,2025-052E,2026-06-19T16:20:14.419680,15.34509052,.0004894,97.3892,67.0230,99.9243,260.2552,0,U,63214,999,7049,.44561E-3,.14833E-3,0
TEVEL2-6,2025-052F,2026-06-19T16:38:04.756704,15.34473954,.0004758,97.3899,67.0201,100.3374,259.8406,0,U,63215,999,7049,.44292E-3,.14726E-3,0
TEVEL2-1,2025-052H,2026-06-19T15:47:11.844672,15.33935464,.0004839,97.3870,66.6064,108.6625,251.5144,0,U,63217,999,7047,.44898E-3,.14677E-3,0
TEVEL2-3,2025-052J,2026-06-19T15:39:21.266208,15.33991826,.0004839,97.3873,66.6229,109.1056,251.0711,0,U,63218,999,7047,.4551E-3,.14905E-3,0
TEVEL2-2,2025-052K,2026-06-19T15:47:37.725792,15.33944539,.0004844,97.3874,66.6088,109.6610,250.5156,0,U,63219,999,7047,.44945E-3,.14696E-3,0
TEVEL2-9,2025-052AD,2026-06-19T16:53:46.470048,15.31960885,.0007998,97.3933,66.0247,123.7916,236.4088,0,U,63237,999,7041,.42841E-3,.13163E-3,0
TEVEL2-7,2025-052AE,2026-06-19T16:19:18.221664,15.31663206,.0008059,97.3935,65.9159,124.2734,235.9272,0,U,63238,999,7040,.41965E-3,.12773E-3,0
TEVEL2-8,2025-052AF,2026-06-19T16:31:13.361376,15.31647647,.0008075,97.3937,65.9009,124.5955,235.6049,0,U,63239,999,7040,.41221E-3,.12538E-3,0
INNOSAT 16 (RS92S7),2025-155C,2026-06-19T21:19:05.612160,15.25480366,.0010864,97.4567,138.0073,166.2211,193.9325,0,U,64878,999,8108,.18559E-3,.4631E-4,0
GEOSCAN 6 (RS92S6),2025-155D,2026-06-19T20:42:20.475072,15.30193730,.0008685,97.4560,139.4248,153.8940,206.2740,0,U,64879,999,8117,.30085E-3,.8722E-4,0
GEOSCAN 1 (RS92S1),2025-155E,2026-06-19T20:44:22.032960,15.30792559,.0008651,97.4557,139.5765,153.7027,206.4655,0,U,64880,999,8118,.32718E-3,.9672E-4,0
239ALFEROV (RS61S),2025-155F,2026-06-19T19:55:07.669632,15.32999593,.0008355,97.4558,140.1125,151.0215,209.1493,0,U,64881,999,8121,.37709E-3,.11958E-3,0
GEOSCAN 2 (RS92S2),2025-155Q,2026-06-19T20:34:35.395104,15.31063884,.000838,97.4556,139.7232,141.6091,218.5747,0,U,64890,999,8119,.31855E-3,.9493E-4,0
GEOSCAN 5 (RS92S5),2025-155R,2026-06-19T21:12:30.707136,15.33317643,.0007104,97.4550,140.3051,154.4438,205.7157,0,U,64891,999,8123,.37617E-3,.12046E-3,0
GEOSCAN 4 (RS92S4),2025-155S,2026-06-19T20:49:21.477216,15.33472836,.0007181,97.4553,140.3381,153.9341,206.2264,0,U,64892,999,8123,.39763E-3,.12802E-3,0
GEOSCAN 3 (RS92S3),2025-155T,2026-06-19T19:11:36.112992,15.35467887,.0007119,97.4542,140.7069,152.5622,207.5998,0,U,64893,999,8125,.43885E-3,.15066E-3,0
