KUZGTU 1 (RS47S)        
1 57217U 23091AV  26170.84658751  .00009423  00000+0  32728-3 0  9999
2 57217  97.5058 235.3537 0012254  89.8304 270.4341 15.29910331164783
SONATE-2                
1 59112U 24043Q   26170.38513632  .00035474  00000+0  45828-3 0  9990
2 59112  97.5537 320.9158 0007143 188.0523 172.0619 15.58855561128237
MESAT1                  
1 60209U 24125G   26170.09059365  .00048291  00000+0  52285-3 0  9992
2 60209  97.2284  27.6161 0009751 196.5946 163.4996 15.63376817109865
OOV-CUBE (TUBSAT-30)    
1 60240U 24128F   26170.58394809  .00001296  00000+0  11023-3 0  9998
2 60240  61.9930 217.2156 0044338 134.2886 226.1856 15.02780984106472
COLIBRI-S (RS67S)       
1 61746U 24199M   26170.84183903  .00018189  00000+0  35147-3 0  9990
2 61746  97.2986  44.7197 0006285 265.5593  94.4939 15.47815455137829
HORS 3 (RS81S)          
1 61753U 24199U   26170.79215860  .00030747  00000+0  45683-3 0  9990
2 61753  97.2969  46.6846 0003815 262.1020  97.9801 15.55126158137969
HORS 4 (RS82S)          
1 61754U 24199V   26170.80900779  .00042501  00000+0  52779-3 0  9998
2 61754  97.2914  47.9201 0003342 241.8348 118.2571 15.59888479138058
SIT-2086                
1 61764U 24199AF  26170.83799300  .00031515  00000+0  50115-3 0  9993
2 61764  97.2927  47.1984 0004874 236.9215 123.1571 15.53242229134841
HYPERVIEW 1G (RS66S)    
1 61772U 24199AP  26170.72916919  .00128823  00000+0  80552-3 0  9994
2 61772  97.2863  50.5774 0004436 209.3810 150.7207 15.76459253135073
ALTAIR (RS65S)          
1 61779U 24199AW  26170.84630481  .00006976  00000+0  19429-3 0  9990
2 61779  97.3023  40.1793 0010929 300.3414  59.6749 15.37056299137521
ASRTU-1 (AO-123)        
1 61781U 24199AY  26170.83653714  .00006293  00000+0  18314-3 0  9990
2 61781  97.2994  39.4830 0012120 303.3998  56.6086 15.35707553134339
SAMSAT-IONOSPHERE (RS7*)
1 61784U 24199BB  26170.82169949  .00039082  00000+0  52459-3 0  9994
2 61784  97.2936  46.7710 0005955 262.7890  97.2689 15.57820507137975
RTU MIREA 1 (RS51S)     
1 61785U 24199BC  26170.84023326  .00049763  00000+0  58380-3 0  9991
2 61785  97.2925  47.6353 0005724 253.4158 106.6472 15.61334966134881
TEVEL2-4                
1 63213U 25052D   26170.65994272  .00015774  00000+0  47105-3 0  9992
2 63213  97.3895  67.0555 0004935  98.3582 261.8220 15.34683062 70491
TEVEL2-5                
1 63214U 25052E   26170.68072245  .00014833  00000+0  44561-3 0  9991
2 63214  97.3892  67.0230 0004894  99.9243 260.2552 15.34509052 70491
TEVEL2-6                
1 63215U 25052F   26170.69311061  .00014726  00000+0  44292-3 0  9997
2 63215  97.3899  67.0201 0004758 100.3374 259.8406 15.34473954 70491
TEVEL2-1                
1 63217U 25052H   26170.65777598  .00014677  00000+0  44898-3 0  9993
2 63217  97.3870  66.6064 0004839 108.6625 251.5144 15.33935464 70478
TEVEL2-3                
1 63218U 25052J   26170.65232947  .00014905  00000+0  45510-3 0  9994
2 63218  97.3873  66.6229 0004839 109.1056 251.0711 15.33991826 70478
TEVEL2-2                
1 63219U 25052K   26170.65807553  .00014696  00000+0  44945-3 0  9994
2 63219  97.3874  66.6088 0004844 109.6610 250.5156 15.33944539 70476
TEVEL2-9                
1 63237U 25052AD  26170.70401007  .00013163  00000+0  42841-3 0  9995
2 63237  97.3933  66.0247 0007998 123.7916 236.4088 15.31960885 70413
TEVEL2-7                
1 63238U 25052AE  26170.68007201  .00012773  00000+0  41965-3 0  9993
2 63238  97.3935  65.9159 0008059 124.2734 235.9272 15.31663206 70404
TEVEL2-8                
1 63239U 25052AF  26170.68834909  .00012538  00000+0  41221-3 0  9991
2 63239  97.3937  65.9009 0008075 124.5955 235.6049 15.31647647 70407
INNOSAT 16 (RS92S7)     
1 64878U 25155C   26170.88825940  .00004631  00000+0  18559-3 0  9995
2 64878  97.4567 138.0073 0010864 166.2211 193.9325 15.25480366 81082
GEOSCAN 6 (RS92S6)      
1 64879U 25155D   26170.86273698  .00008722  00000+0  30085-3 0  9994
2 64879  97.4560 139.4248 0008685 153.8940 206.2740 15.30193730 81175
GEOSCAN 1 (RS92S1)      
1 64880U 25155E   26170.86414390  .00009672  00000+0  32718-3 0  9992
2 64880  97.4557 139.5765 0008651 153.7027 206.4655 15.30792559 81188
239ALFEROV (RS61S)      
1 64881U 25155F   26170.82994988  .00011958  00000+0  37709-3 0  9990
2 64881  97.4558 140.1125 0008355 151.0215 209.1493 15.32999593 81212
GEOSCAN 2 (RS92S2)      
1 64890U 25155Q   26170.85735411  .00009493  00000+0  31855-3 0  9994
2 64890  97.4556 139.7232 0008380 141.6091 218.5747 15.31063884 81195
GEOSCAN 5 (RS92S5)      
1 64891U 25155R   26170.88368874  .00012046  00000+0  37617-3 0  9993
2 64891  97.4550 140.3051 0007104 154.4438 205.7157 15.33317643 81232
GEOSCAN 4 (RS92S4)      
1 64892U 25155S   26170.86760969  .00012802  00000+0  39763-3 0  9997
2 64892  97.4553 140.3381 0007181 153.9341 206.2264 15.33472836 81235
GEOSCAN 3 (RS92S3)      
1 64893U 25155T   26170.79972353  .00015066  00000+0  43885-3 0  9997
2 64893  97.4542 140.7069 0007119 152.5622 207.5998 15.35467887 81251
